ONEWEB-0248             
1 48798U 21045AH  26198.07904243  .00000148  00000+0  35933-3 0  9991
2 48798  87.8993 253.2363 0002469 105.4740 254.6663 13.15549452248340
ONEWEB-0225             
1 48799U 21045AJ  26198.10123357 -.00000067  00000+0 -21152-3 0  9995
2 48799  87.8987 253.2390 0002289 111.5077 248.6297 13.15548511248357
ONEWEB-0215             
1 48800U 21045AK  26198.14717556  .00000172  00000+0  42305-3 0  9990
2 48800  87.8993 253.2140 0002443 112.4001 247.7389 13.15549199248231
ONEWEB-0216             
1 48801U 21045AL  26197.70034801 -.00000042  00000+0 -14503-3 0  9994
2 48801  87.8991 253.3166 0002042  98.0738 262.0624 13.15548359248183
ONEWEB-0239             
1 48802U 21045AM  26198.08538985  .00000092  00000+0  20935-3 0  9998
2 48802  87.8982 253.2438 0002722 109.3002 250.8423 13.15548224248273
FENGYUN 4B              
1 48808U 21047A   26198.28862826 -.00000340  00000+0  00000+0 0  9996
2 48808   0.2257  79.9984 0006875 272.6368 150.9148  1.00278504 18871
SXM-8                   
1 48838U 21049A   26198.25101475 -.00000215  00000+0  00000+0 0  9995
2 48838   0.0198  52.3984 0005529 339.9245 267.9550  1.00270177 18882
2021-050D               
1 48843U 21050D   26198.28638949  .00002521  00000+0  10817-3 0  9999
2 48843  97.3326 273.6403 0006550 146.9749 213.1898 15.23606116283545
NAVSTAR 81 (USA 319)    
1 48859U 21054A   26197.98812434 -.00000100  00000+0  00000+0 0  9990
2 48859  55.1585 331.2614 0026495 228.5534 178.0672  2.00566994 37350
YAOGAN-30 10A           
1 48860U 21055A   26198.29919332  .00001352  00000+0  10113-3 0  9992
2 48860  34.9967 328.6916 0004303 326.9779  33.0660 15.02804701277714
YAOGAN-30 10B           
1 48861U 21055B   26198.27813565  .00001236  00000+0  92675-4 0  9997
2 48861  34.9964 328.4578 0004622 333.6821  26.3653 15.02793773277703
YAOGAN-30 10C           
1 48863U 21055D   26197.84528078  .00001227  00000+0  92025-4 0  9992
2 48863  34.9965 330.7558 0002770  52.8458 307.2503 15.02800962277353
TIANQI-14               
1 48864U 21055E   26198.26463930  .00002783  00000+0  15189-3 0  9998
2 48864  34.9982 251.9734 0005418 228.7796 131.2449 15.13936552278288
COSMOS 2550             
1 48865U 21056A   26198.28068310  .00002607  00000+0  85004-4 0  9994
2 48865  67.1438   8.8743 0008533 270.1431  89.8746 15.33839837283330
STARLINK-3005           
1 48881U 21059C   26197.92115676 -.00004204  00000+0 -32316-3 0  9997
2 48881  97.4453 321.9598 0005921 181.5077 178.6131 15.01242106278192
TYVAK-0173              
1 48892U 21059P   26197.77246480  .00000784  00000+0  10290-3 0  9994
2 48892  96.0073 266.7748 0007183 293.2065  66.8396 14.81974160272622
MANDRAKE 2 ABLE         
1 48907U 21059AE  26197.50721985  .00014158  00000+0  20423-3 0  9999
2 48907  97.7024  29.5526 0003870 228.1579 131.9345 15.56108398281687
MANDRAKE 2 BAKER        
1 48908U 21059AF  26197.99084795  .00017600  00000+0  21070-3 0  9998
2 48908  97.6987  33.1604 0002851 210.6325 149.4765 15.61036165281943
PACE-1                  
1 48909U 21059AG  26197.99698064  .00089362  00000+0  36927-3 0  9990
2 48909  97.6726  39.6317 0003427 179.1334 180.9943 15.85624225282514
YAM-3                   
1 48915U 21059AN  26198.30224932  .00006543  00000+0  12205-3 0  9995
2 48915  97.6994  27.2401 0004055 231.1013 128.9876 15.49176865281659
FARADAY_PHOENIX         
1 48924U 21059AX  26197.54980561  .00151208  00000+0  56701-3 0  9995
2 48924  97.6775  39.0457 0005966 195.9136 164.1948 15.87454958282302
HAWK-3B                 
1 48931U 21059BE  26197.50073101  .00030374  00000+0  23387-3 0  9996
2 48931  97.6631  37.0342 0004634 193.4440 166.6700 15.71948524282453
HAWK-3C                 
1 48948U 21059BX  26198.00966956  .00029575  00000+0  22742-3 0  9994
2 48948  97.6748  43.3297 0004953 192.2303 167.8840 15.71982005282537
DEMO8 (TENZING)         
1 48951U 21059CA  26198.28223194  .00012576  00000+0  18173-3 0  9994
2 48951  97.7010  34.0172 0005839 222.1613 137.9192 15.56081331281985
HAWK-3A                 
1 48957U 21059CG  26197.56395893  .00029863  00000+0  22989-3 0  9993
2 48957  97.6691  40.0209 0004819 195.8610 164.2502 15.71953796282465
SHERPA-FX2 & TAGSAT-2   
1 48958U 21059CH  26198.26284545  .00012881  00000+0  17768-3 0  9994
2 48958  97.6837  34.5688 0005693 213.5499 146.5395 15.57334403282107
SPARTAN                 
1 48964U 21059CP  26197.54038327  .00085103  00000+0  35462-3 0  9994
2 48964  97.6706  41.5447 0002899 171.8257 188.3060 15.85463800282572
ONEWEB-0249             
1 48967U 21060A   26198.29966584  .00000049  00000+0  95698-4 0  9991
2 48967  87.9080 222.7966 0002166  95.0938 265.0440 13.16592506243571
ONEWEB-0250             
1 48968U 21060B   26198.04181460  .00000029  00000+0  36632-4 0  9998
2 48968  87.9080 220.5068 0003056  84.1964 275.9521 13.25835375244179
ONEWEB-0252             
1 48970U 21060D   26197.57058455 -.00000050  00000+0 -16391-3 0  9990
2 48970  87.9078 222.9336 0001870  96.2308 263.9036 13.16595307243525
