OBJECT_NAME,OBJECT_ID,EPOCH,MEAN_MOTION,ECCENTRICITY,INCLINATION,RA_OF_ASC_NODE,ARG_OF_PERICENTER,MEAN_ANOMALY,EPHEMERIS_TYPE,CLASSIFICATION_TYPE,NORAD_CAT_ID,ELEMENT_SET_NO,REV_AT_EPOCH,BSTAR,MEAN_MOTION_DOT,MEAN_MOTION_DDOT
ONEWEB-0248,2021-045AH,2026-07-17T01:53:49.265952,13.15549452,.0002469,87.8993,253.2363,105.4740,254.6663,0,U,48798,999,24834,.35933059E-3,.148E-5,0
ONEWEB-0225,2021-045AJ,2026-07-17T02:25:46.580448,13.15548511,.00022899,87.8987,253.2390,111.5077,248.6297,0,U,48799,999,24835,-.21152289E-3,-.67E-6,0
ONEWEB-0215,2021-045AK,2026-07-17T03:31:55.968384,13.15549199,.0002443,87.8993,253.2140,112.4001,247.7389,0,U,48800,999,24823,.42304547E-3,.172E-5,0
ONEWEB-0216,2021-045AL,2026-07-16T16:48:30.068064,13.15548359,.00020427,87.8991,253.3166,98.0738,262.0624,0,U,48801,999,24818,-.14503208E-3,-.42E-6,0
ONEWEB-0239,2021-045AM,2026-07-17T02:02:57.683040,13.15548224,.00027225,87.8982,253.2438,109.3002,250.8423,0,U,48802,999,24827,.2093527E-3,.92E-6,0
FENGYUN 4B,2021-047A,2026-07-17T06:55:37.481664,1.00278504,.0006875,0.2257,79.9984,272.6368,150.9148,0,U,48808,999,1887,0,-.34E-5,0
SXM-8,2021-049A,2026-07-17T06:01:27.674400,1.00270177,.00055297,0.0198,52.3984,339.9245,267.9550,0,U,48838,999,1888,0,-.215E-5,0
2021-050D,2021-050D,2026-07-17T06:52:24.051936,15.23606116,.00065505,97.3326,273.6403,146.9749,213.1898,0,U,48843,999,28354,.10816947E-3,.2521E-4,0
NAVSTAR 81 (USA 319),2021-054A,2026-07-16T23:42:53.942976,2.00566994,.00264954,55.1585,331.2614,228.5534,178.0672,0,U,48859,999,3735,0,-.1E-5,0
YAOGAN-30 10A,2021-055A,2026-07-17T07:10:50.302848,15.02804701,.00043032,34.9967,328.6916,326.9779,33.0660,0,U,48860,999,27771,.10113133E-3,.1352E-4,0
YAOGAN-30 10B,2021-055B,2026-07-17T06:40:30.920160,15.02793773,.00046222,34.9964,328.4578,333.6821,26.3653,0,U,48861,999,27770,.92674744E-4,.1236E-4,0
YAOGAN-30 10C,2021-055D,2026-07-16T20:17:12.259392,15.02800962,.00027708,34.9965,330.7558,52.8458,307.2503,0,U,48863,999,27735,.92025325E-4,.1227E-4,0
TIANQI-14,2021-055E,2026-07-17T06:21:04.835520,15.13936552,.00054181,34.9982,251.9734,228.7796,131.2449,0,U,48864,999,27828,.15189066E-3,.2783E-4,0
COSMOS 2550,2021-056A,2026-07-17T06:44:11.019840,15.33839837,.00085338,67.1438,8.8743,270.1431,89.8746,0,U,48865,999,28333,.85004142E-4,.2607E-4,0
STARLINK-3005,2021-059C,2026-07-16T22:06:27.944064,15.01242106,.00059216,97.4453,321.9598,181.5077,178.6131,0,U,48881,999,27819,-.32316267E-3,-.4204E-4,0
TYVAK-0173,2021-059P,2026-07-16T18:32:20.958720,14.81974160,.00071839,96.0073,266.7748,293.2065,66.8396,0,U,48892,999,27262,.10290039E-3,.784E-5,0
MANDRAKE 2 ABLE,2021-059AE,2026-07-16T12:10:23.795040,15.56108398,.00038706,97.7024,29.5526,228.1579,131.9345,0,U,48907,999,28168,.20422737E-3,.14158E-3,0
MANDRAKE 2 BAKER,2021-059AF,2026-07-16T23:46:49.262880,15.61036165,.00028518,97.6987,33.1604,210.6325,149.4765,0,U,48908,999,28194,.2107038E-3,.176E-3,0
PACE-1,2021-059AG,2026-07-16T23:55:39.127296,15.85624225,.0003427,97.6726,39.6317,179.1334,180.9943,0,U,48909,999,28251,.36926722E-3,.89362E-3,0
YAM-3,2021-059AN,2026-07-17T07:15:14.341248,15.49176865,.00040558,97.6994,27.2401,231.1013,128.9876,0,U,48915,999,28165,.12205074E-3,.6543E-4,0
FARADAY_PHOENIX,2021-059AX,2026-07-16T13:11:43.204704,15.87454958,.00059662,97.6775,39.0457,195.9136,164.1948,0,U,48924,999,28230,.56700913E-3,.151208E-2,0
HAWK-3B,2021-059BE,2026-07-16T12:01:03.159264,15.71948524,.0004634,97.6631,37.0342,193.4440,166.6700,0,U,48931,999,28245,.23387E-3,.30374E-3,0
HAWK-3C,2021-059BX,2026-07-17T00:13:55.449984,15.71982005,.00049532,97.6748,43.3297,192.2303,167.8840,0,U,48948,999,28253,.22741832E-3,.29575E-3,0
DEMO8 (TENZING),2021-059CA,2026-07-17T06:46:24.839616,15.56081331,.00058399,97.7010,34.0172,222.1613,137.9192,0,U,48951,999,28198,.18172998E-3,.12576E-3,0
HAWK-3A,2021-059CG,2026-07-16T13:32:06.051552,15.71953796,.00048195,97.6691,40.0209,195.8610,164.2502,0,U,48957,999,28246,.22989456E-3,.29863E-3,0
SHERPA-FX2 & TAGSAT-2,2021-059CH,2026-07-17T06:18:29.846880,15.57334403,.00056931,97.6837,34.5688,213.5499,146.5395,0,U,48958,999,28210,.1776781E-3,.12881E-3,0
SPARTAN,2021-059CP,2026-07-16T12:58:09.114528,15.85463800,.00028991,97.6706,41.5447,171.8257,188.3060,0,U,48964,999,28257,.35462068E-3,.85103E-3,0
ONEWEB-0249,2021-060A,2026-07-17T07:11:31.128576,13.16592506,.00021665,87.9080,222.7966,95.0938,265.0440,0,U,48967,999,24357,.95698068E-4,.49E-6,0
ONEWEB-0250,2021-060B,2026-07-17T01:00:12.781440,13.25835375,.00030569,87.9080,220.5068,84.1964,275.9521,0,U,48968,999,24417,.366319E-4,.29E-6,0
ONEWEB-0252,2021-060D,2026-07-16T13:41:38.505120,13.16595307,.00018706,87.9078,222.9336,96.2308,263.9036,0,U,48970,999,24352,-.16390933E-3,-.5E-6,0
